{"spkid": "50771473", "covariance": {"epoch": "2458273.5", "labels": ["e", "q", "tp", "node", "peri", "i"], "elements": [{"label": "e", "title": "eccentricity", "value": ".7051585425366079", "units": null, "sigma": 5.01282562474833e-08, "name": "e"}, {"label": "q", "sigma": 1.25091672071439e-07, "name": "q", "value": ".7678423127414968", "title": "perihelion distance", "units": "au"}, {"label": "tp", "name": "tp", "sigma": 1.35389540537913e-05, "units": "TDB", "title": "time of perihelion passage", "value": "2457899.858864632916"}, {"name": "om", "sigma": 1.29215561272561e-05, "units": "deg", "value": "218.6664854767108", "title": "longitude of the ascending node", "label": "node"}, {"sigma": 2.30886431777444e-05, "name": "w", "units": "deg", "title": "argument of perihelion", "value": "59.0208188707532", "label": "peri"}, {"label": "i", "units": "deg", "title": "inclination", "value": "19.76525656754172", "sigma": 1.11058902910844e-05, "name": "i"}], "data": [["2.512842074413349E-15", "-6.267162995585463E-15", "2.731752473069341E-13", "-2.213840004503529E-13", "9.740928271035554E-13", "5.493876597582772E-14"], ["-6.267162995585463E-15", "1.564792642162838E-14", "-7.06804487045395E-13", "5.688835020553991E-13", "-2.448702561027639E-12", "-1.404988498900194E-13"], ["2.731752473069341E-13", "-7.06804487045395E-13", "1.833032768706721E-10", "-4.632869067249592E-11", "2.117247401802105E-10", "3.283212449705387E-11"], ["-2.213840004503529E-13", "5.688835020553991E-13", "-4.632869067249592E-11", "1.669666127498284E-10", "-1.909962659622097E-10", "-5.211330474725174E-11"], ["9.740928271035554E-13", "-2.448702561027639E-12", "2.117247401802105E-10", "-1.909962659622097E-10", "5.330854437892041E-10", "6.516312298463236E-11"], ["5.493876597582772E-14", "-1.404988498900194E-13", "3.283212449705387E-11", "-5.211330474725174E-11", "6.516312298463236E-11", "1.233407991576037E-10"]]}, "elements": [{"title": "eccentricity", "value": ".7055410755500189", "units": null, "name": "e", "sigma": "4.9581E-8", "label": "e"}, {"label": "a", "sigma": "2.4539E-8", "name": "a", "value": "2.602117137711061", "title": "semi-major axis", "units": "au"}, {"name": "q", "sigma": "1.2309E-7", "units": "au", "value": ".7662166136632624", "title": "perihelion distance", "label": "q"}, {"units": "deg", "value": "19.7595650223995", "title": "inclination; angle with respect to x-y ecliptic plane", "sigma": "1.1104E-5", "name": "i", "label": "i"}, {"units": "deg", "title": "longitude of the ascending node", "value": "218.5763288369597", "name": "om", "sigma": "1.2945E-5", "label": "node"}, {"units": "deg", "value": "59.10002234603715", "title": "argument of perihelion", "name": "w", "sigma": "2.3124E-5", "label": "peri"}, {"sigma": "1.1185E-5", "name": "ma", "title": "mean anomaly", "value": "54.635283588095", "units": "deg", "label": "M"}, {"sigma": "4.4449E-5", "name": "tp", "units": "TDB", "value": "2460967.819819376619", "title": "time of perihelion passage", "label": "tp"}, {"units": "d", "value": "1533.164276329835", "title": "sidereal orbital period", "name": "per", "sigma": "2.1688E-5", "label": "period"}, {"sigma": "3.3216E-9", "name": "n", "title": "mean motion", "value": ".2348084974049786", "units": "deg/d", "label": "n"}, {"value": "4.43801766175886", "title": "aphelion distance", "units": "au", "name": "ad", "sigma": "4.1853E-8", "label": "Q"}], "epoch": "2461200.5"}